{"type": "FeatureCollection", "features": [{"type": "Feature", "properties": {"id": "Z1", "ward": "A", "name": "A", "shops": 106, "waterlogging_prone": false}, "geometry": {"type": "Polygon", "coordinates": [[[18.94906516551576, 72.83776109771298], [18.948935515577677, 72.84230550202437], [18.948028844156052, 72.84680759496636], [18.935521060330885, 72.84365916430811], [18.93538502765798, 72.84345331580519], [18.935605011283947, 72.84325135941589], [18.935574612009347, 72.8429472668356], [18.929005106187077, 72.84424254505717], [18.92893568908969, 72.84299133623286], [18.933111944634742, 72.84226651534044], [18.93337423344592, 72.8412601599236], [18.932760701823604, 72.84001174298301], [18.93093363286853, 72.84027015424182], [18.928976886748124, 72.83752810803381], [18.929391331189883, 72.83694133473942], [18.928724386355963, 72.837211240559], [18.92812671767029, 72.8362369988404], [18.927879539579134, 72.83668244505097], [18.927302004566457, 72.83686484055654], [18.927718918799577, 72.8379374393541], [18.926782914743274, 72.83839706918172], [18.927678372796933, 72.84039523141217], [18.9264659517639, 72.83788890872944], [18.921247668328967, 72.84042520581914], [18.9252587432022, 72.84432060185623], [18.926080685908587, 72.84444417719378], [18.9261291560821, 72.84469263575485], [18.925280646137473, 72.84463645973656], [18.920681178031316, 72.84031752838278], [18.920252506526175, 72.83951834532058], [18.920418305451985, 72.83809842447583], [18.92359996150073, 72.834870953868], [18.92314612498675, 72.83426448980939], [18.92291928748969, 72.83495407145213], [18.922267637688307, 72.83466310842722], [18.92195608085729, 72.83490706673189], [18.921638480265447, 72.83449510587316], [18.921940863956415, 72.83420161995492], [18.921801569084614, 72.833650801499], [18.918374206098058, 72.83208384018697], [18.918110809664974, 72.83283356110466], [18.918122226703602, 72.83206025930096], [18.917364301616985, 72.83185723346375], [18.91739875487723, 72.8314800070348], [18.91602482613199, 72.82984167784092], [18.91539386314215, 72.83020473806314], [18.915450029658796, 72.8307706069912], [18.91503601658636, 72.83126331512213], [18.912900637653703, 72.8294161173692], [18.911199876014717, 72.82692627284133], [18.910382286016997, 72.82682986508259], [18.907338165153, 72.82502858792134], [18.910252306946667, 72.82229634582278], [18.90715929208792, 72.81964780888386], [18.90730479185999, 72.81945030701327], [18.906445965037, 72.81860287300914], [18.907061511663716, 72.8178737590565], [18.906535707140712, 72.81748907757994], [18.905915250137074, 72.81770534875136], [18.905251733682224, 72.81737246105837], [18.90431805671123, 72.81784408437603], [18.902999284917833, 72.81745038953814], [18.902997004759666, 72.81793599636622], [18.902742425432553, 72.8179538376229], [18.902319816547593, 72.81742556359781], [18.902294928894623, 72.81878291197751], [18.902253034819626, 72.81747203426715], [18.901314196367778, 72.8171499441965], [18.900604615126976, 72.81726953638218], [18.8952735018566, 72.81326358008698], [18.894917626324776, 72.81246975802448], [18.89518870933983, 72.81097128322341], [18.894647024943907, 72.81016896642878], [18.893997899998357, 72.80988398152941], [18.894117284891248, 72.80914725359703], [18.897261015618348, 72.80576870189], [18.8990015075566, 72.80464291399683], [18.900433219767503, 72.80418567329625], [18.90358191492227, 72.80357840503201], [18.905651546194903, 72.80355936950951], [18.908084545029517, 72.80398751493883], [18.91021155873657, 72.80484635511094], [18.91738311462884, 72.81027899155158], [18.925511522553055, 72.81804130081956], [18.93025191422177, 72.82194825931897], [18.93359724269545, 72.82339659216728], [18.935812745092825, 72.82386584498698], [18.938431580669356, 72.8239779712082], [18.941464564041492, 72.8235496863412], [18.943294228156354, 72.82882128001206], [18.9453884633975, 72.83089175618629], [18.948420701324345, 72.83487863581536], [18.94906516551576, 72.83776109771298]]]}}, {"type": "Feature", "properties": {"id": "Z2", "ward": "B", "name": "B", "shops": 104, "waterlogging_prone": false}, "geometry": {"type": "Polygon", "coordinates": [[[18.963423401021682, 72.84456460607964], [18.963584349889278, 72.84486135522332], [18.96327761371549, 72.84530055258368], [18.963655366841568, 72.84662396806343], [18.963448849649374, 72.84760525654566], [18.96375084980311, 72.84767160168454], [18.963395411714504, 72.84937556794542], [18.957959028572652, 72.8479999662002], [18.95737852402487, 72.84960558069263], [18.957909880449645, 72.850580745074], [18.958802459007558, 72.85078237773217], [18.95876161767972, 72.85106082063344], [18.95773641535044, 72.85082383017956], [18.9572662670629, 72.84980619366888], [18.955870275537876, 72.84951838280736], [18.95596243360923, 72.84910496124675], [18.957301625130466, 72.84943518450696], [18.95777201417332, 72.84795472419997], [18.95470934197592, 72.84719656096432], [18.954439927354848, 72.8467954893996], [18.954088938710477, 72.84713279141604], [18.954099410129817, 72.84671174255577], [18.95356267019509, 72.84691283122336], [18.952005914198303, 72.84632849957904], [18.951949328921025, 72.8466922703934], [18.950569723084, 72.84618545212784], [18.950439742054545, 72.84650478655453], [18.948028844156052, 72.84680759496636], [18.948935515577677, 72.84230550202437], [18.94906516551576, 72.83776109771298], [18.948455221044558, 72.83495927016058], [18.947470303062243, 72.83366301412812], [18.95392670992551, 72.83176734047304], [18.955054349875862, 72.83218572419092], [18.959440820954207, 72.831745661604], [18.961872856473573, 72.83198969160995], [18.962132740465307, 72.83438423366482], [18.962522166948865, 72.83526158059868], [18.962593550354555, 72.83737570224154], [18.965107811805254, 72.83881613726003], [18.964469819666505, 72.83944136179316], [18.963423401021682, 72.84456460607964]]]}}, {"type": "Feature", "properties": {"id": "Z3", "ward": "G/S", "name": "Worli \u00b7 Lower Parel", "shops": 141, "waterlogging_prone": false}, "geometry": {"type": "Polygon", "coordinates": [[[19.019415136957434, 72.82689421050671], [19.0163722947527, 72.82866192563446], [19.01632303477839, 72.8292822603748], [19.013190537317666, 72.83114392499614], [19.01110159058227, 72.83194451678526], [19.00933362473912, 72.83316335279247], [19.007395083267763, 72.83635876388415], [19.00423453582341, 72.83470084669129], [18.999903800590648, 72.83334137008971], [18.99640193926035, 72.83302191364795], [18.98812183664306, 72.8331335200023], [18.98142207581877, 72.8270551023064], [18.98142674605699, 72.82655977123402], [18.9810054007677, 72.82635537947436], [18.978061073456537, 72.81171489495978], [18.97827436413705, 72.80960833109908], [18.978825699443647, 72.8092562996029], [18.978198231905626, 72.80852796690054], [18.978466162676643, 72.80738660481549], [18.97928866279128, 72.80582563716395], [18.985462954271163, 72.80941318928113], [18.98986683574577, 72.8110538989901], [18.99318137663614, 72.81185288607622], [18.996048575598824, 72.81186931504924], [18.998175369383578, 72.81126801687556], [19.001558338108907, 72.81139142008963], [19.00489491376081, 72.81324427008563], [19.008491833753716, 72.81442613520134], [19.011951788015093, 72.8163969648459], [19.013057489086233, 72.81670992290474], [19.01489438598971, 72.81643323283963], [19.016262433936276, 72.81582016681273], [19.02401522344857, 72.8153323582133], [19.026677569324963, 72.81403359042453], [19.026878646224247, 72.81464088097077], [19.025360125389174, 72.81640547614674], [19.02398536659206, 72.8173718733254], [19.022876243020892, 72.81888531474148], [19.02306840659149, 72.81924876394072], [19.02210159940634, 72.8185785640848], [19.019500631301387, 72.8189538283453], [19.018661823627756, 72.81957563041234], [19.01840448841436, 72.82059265591937], [19.017817631636415, 72.82090435080515], [19.01757011261332, 72.82273644724629], [19.017828433541812, 72.82389412663882], [19.019415136957434, 72.82689421050671]]]}}, {"type": "Feature", "properties": {"id": "Z4", "ward": "C", "name": "C", "shops": 72, "waterlogging_prone": false}, "geometry": {"type": "Polygon", "coordinates": [[[18.961744599402852, 72.83197689961185], [18.959440820954207, 72.831745661604], [18.955054349875862, 72.83218572419092], [18.95392670992551, 72.83176734047304], [18.947470303062243, 72.83366301412812], [18.9453884633975, 72.83089175618629], [18.943294228156354, 72.82882128001206], [18.941464564041492, 72.8235496863412], [18.945725506726767, 72.82171657968432], [18.94945642374751, 72.81892459943565], [18.950650827372417, 72.8202607221384], [18.9531408113145, 72.82541542276546], [18.954458233746774, 72.82509687622309], [18.95502658376031, 72.8256238490858], [18.955658853155064, 72.82503173482885], [18.95817066011456, 72.82615869360853], [18.961687999430815, 72.82624706730032], [18.961744599402852, 72.83197689961185]]]}}, {"type": "Feature", "properties": {"id": "Z5", "ward": "D", "name": "D", "shops": 115, "waterlogging_prone": false}, "geometry": {"type": "Polygon", "coordinates": [[[18.96900560547717, 72.818725814261], [18.968622686443638, 72.82258091255143], [18.96790470546421, 72.82522053854015], [18.961759976320202, 72.82448897484647], [18.961687999430815, 72.82624706730032], [18.95817066011456, 72.82615869360853], [18.955658853155064, 72.82503173482885], [18.95502658376031, 72.8256238490858], [18.954458233746774, 72.82509687622309], [18.9531408113145, 72.82541542276546], [18.950650827372417, 72.8202607221384], [18.94945642374751, 72.81892459943565], [18.95083242651884, 72.81770439528015], [18.95346252084786, 72.81386061062472], [18.954701176672486, 72.8105841593076], [18.954957149409648, 72.80808180789126], [18.95337964724566, 72.80670245696534], [18.953232350786326, 72.80742991516568], [18.952222781575973, 72.80552726256612], [18.951225720769052, 72.80471310747517], [18.951455170450775, 72.80444735532566], [18.950990333864816, 72.80400398186715], [18.950745468281543, 72.80417562383023], [18.950035957567714, 72.80309153018513], [18.94888039246631, 72.80225878672334], [18.948284889875204, 72.80126173485678], [18.94830362836734, 72.80034021216385], [18.94740377959883, 72.79913453288697], [18.94746417650461, 72.79808429157553], [18.946126900416925, 72.79768174324487], [18.943807669860252, 72.79556358822352], [18.94169448032011, 72.79519708130191], [18.93965855720544, 72.79422116180224], [18.939696495511686, 72.79477598210221], [18.939212059493357, 72.79330150052597], [18.939583961307466, 72.7926658962843], [18.94006590122305, 72.79244102388884], [18.941945376857834, 72.79338498904897], [18.94347444305789, 72.79349018382521], [18.944248918180786, 72.79336515151724], [18.945701724717917, 72.79204726087994], [18.94888220998876, 72.79155678146928], [18.948908053637847, 72.79189002813675], [18.954466588809776, 72.79440767282588], [18.962510356419646, 72.799405789315], [18.972540455561546, 72.80177881250934], [18.974319379775512, 72.80258347554624], [18.97928866279128, 72.80582563716395], [18.97830839682679, 72.80777554123267], [18.97825071316388, 72.80871096750083], [18.978825699443647, 72.8092562996029], [18.97827436413705, 72.80960833109908], [18.97805366563351, 72.81160317080172], [18.980372112729707, 72.8231903045653], [18.96900560547717, 72.818725814261]]]}}, {"type": "Feature", "properties": {"id": "Z6", "ward": "F/N", "name": "F/N", "shops": 93, "waterlogging_prone": true}, "geometry": {"type": "Polygon", "coordinates": [[[19.05119304809422, 72.87091494852226], [19.04994689661563, 72.87199249847235], [19.04989719403494, 72.87370265535037], [19.048854346980622, 72.87595465871983], [19.049021953238892, 72.87667963741228], [19.047858845267346, 72.87811854272022], [19.047738846004858, 72.87935226564193], [19.04691497934284, 72.87998717563643], [19.045634948275566, 72.87978677337344], [19.042118005992013, 72.88073380644491], [19.036867798206373, 72.88132694805554], [19.034741031553136, 72.88083853796938], [19.030687178202406, 72.87878442054107], [19.028664358378794, 72.87813041013969], [19.025576675129777, 72.87737783283305], [19.023869209913613, 72.87729757958205], [19.021767214552153, 72.87807717793406], [19.01939524926716, 72.87986345136095], [19.01579661079286, 72.88386428456006], [19.007943210174474, 72.88538097830676], [19.011531690118268, 72.8808830600616], [19.01166054924934, 72.87936564561349], [19.01134814999272, 72.87763415230101], [19.008552017479055, 72.87250730428141], [19.00766410066537, 72.86979466400452], [19.00867423537847, 72.86941922464459], [19.008528516256252, 72.86902104490272], [19.009984693991907, 72.86874385892861], [19.010423731058562, 72.86794966823558], [19.010914173836614, 72.86782141241709], [19.012588935820908, 72.86619278793717], [19.01292770800444, 72.86530968161546], [19.015155775095916, 72.86379101930503], [19.01492497014039, 72.86309930867174], [19.01529313660002, 72.86319166583868], [19.010530569226358, 72.85630454869698], [19.011179179380118, 72.85483973519044], [19.01317679302154, 72.84748262402675], [19.01696605407582, 72.84284051392098], [19.052584965850084, 72.86752565758519], [19.051412551734174, 72.86888966872263], [19.05119304809422, 72.87091494852226]]]}}, {"type": "Feature", "properties": {"id": "Z7", "ward": "F/S", "name": "Parel \u00b7 Lalbaug", "shops": 46, "waterlogging_prone": true}, "geometry": {"type": "Polygon", "coordinates": [[[19.010586811895262, 72.85625422924824], [19.01529313660002, 72.86319166583868], [19.01492497014039, 72.86309930867174], [19.015155775095916, 72.86379101930503], [19.01292770800444, 72.86530968161546], [19.012588935820908, 72.86619278793717], [19.010914173836614, 72.86782141241709], [19.010423731058562, 72.86794966823558], [19.010120414462726, 72.8686271995864], [19.009596263576242, 72.86896805890387], [19.008528516256252, 72.86902104490272], [19.00867423537847, 72.86941922464459], [19.00766410066537, 72.86979466400452], [19.00308267077626, 72.8615355554795], [19.003024845484834, 72.86235556137038], [19.003040406131568, 72.86140536290915], [19.00246936625137, 72.86132443396873], [19.002292252833783, 72.86239913207723], [19.00193928541499, 72.86233932315626], [19.002165868407836, 72.86102800229789], [19.000538391858967, 72.86080599847998], [18.999146659567632, 72.86003800040478], [18.998508240215887, 72.86021162447402], [18.998401333696133, 72.8599389374896], [18.995942456903794, 72.8609570170429], [18.99552431168315, 72.86204471395952], [18.99577760827368, 72.8610234204089], [18.994301693893124, 72.86161793232819], [18.993546871682057, 72.85958480805517], [18.992757064084273, 72.85994634949384], [18.991768747185173, 72.85689675940628], [18.981626314382357, 72.86118671380751], [18.978368880718815, 72.85767717909276], [18.980099931315248, 72.84975892159311], [18.981428776620913, 72.84657841395143], [18.981886782923894, 72.84665224807266], [18.982949560872008, 72.84413284042608], [18.983179812087037, 72.84260679548812], [18.988130381194175, 72.84137878789689], [18.988498435210147, 72.83529347782161], [18.98812183664306, 72.8331335200023], [18.989490249689425, 72.83302028314215], [18.99834039837669, 72.83310457044291], [19.00290513502349, 72.83419625177295], [19.006758062008277, 72.83595221118458], [19.01696605407582, 72.84284051392098], [19.01317679302154, 72.84748262402675], [19.010586811895262, 72.85625422924824]]]}}, {"type": "Feature", "properties": {"id": "Z8", "ward": "G/N", "name": "G/N", "shops": 77, "waterlogging_prone": true}, "geometry": {"type": "Polygon", "coordinates": [[[19.052277413638933, 72.86005826313664], [19.052373930607175, 72.86737674234014], [19.007395083267763, 72.83635876388415], [19.00933362473912, 72.83316335279247], [19.01110159058227, 72.83194451678526], [19.013190537317666, 72.83114392499614], [19.01632303477839, 72.8292822603748], [19.0163722947527, 72.82866192563446], [19.019415136957434, 72.82689421050671], [19.02227831465862, 72.83073438309601], [19.02504566694249, 72.83343078529501], [19.027359327385007, 72.83493407425176], [19.032846310116096, 72.83728669016841], [19.037277080393544, 72.83802374153974], [19.044055315385812, 72.83727023545254], [19.046904006030488, 72.83623049837135], [19.04790566228918, 72.83654401178273], [19.048320124633502, 72.83845043782479], [19.05095091363211, 72.84216200169045], [19.052277413638933, 72.86005826313664]]]}}, {"type": "Feature", "properties": {"id": "Z9", "ward": "M/W", "name": "Chembur", "shops": 64, "waterlogging_prone": false}, "geometry": {"type": "Polygon", "coordinates": [[[19.073633826247587, 72.90277096414971], [19.07158152789059, 72.90521513264109], [19.071959265664148, 72.90730207977232], [19.07035235797316, 72.90767934807964], [19.07040074320125, 72.90925052225533], [19.069512774564522, 72.90950763323077], [19.069563824630478, 72.90986690184447], [19.068081636892604, 72.9101127505603], [19.0649422905411, 72.91178623356875], [19.060300860764446, 72.90756844605252], [19.060015603176502, 72.90800001105613], [19.059730886557446, 72.90772582910847], [19.057226712675952, 72.91237327276913], [19.05517195442704, 72.91108406394801], [19.050708988984255, 72.9104949636313], [19.04571348530463, 72.90934002065369], [19.0460866553572, 72.89882823457202], [19.04465939785735, 72.89874810411007], [19.043792207396155, 72.89656395026873], [19.04239835006634, 72.89604753646238], [19.0426468925011, 72.8952844779238], [19.041419555690624, 72.8951927253073], [19.04094174178026, 72.89388649690251], [19.039369864424447, 72.89471286235165], [19.036318014053286, 72.8951254301548], [19.032454051645576, 72.89648573292968], [19.029487679170234, 72.89691745738594], [19.027491735847104, 72.89767943563146], [19.009334167207076, 72.89846765591338], [19.008789336315058, 72.89998353726754], [19.00792017461391, 72.90104546041374], [19.00677019610119, 72.90538626925947], [19.003131368273678, 72.90491058227816], [19.002968061998104, 72.90432224907552], [18.993988930658467, 72.90444525353955], [18.995212127864296, 72.90034534398113], [18.995208427132393, 72.8958192274461], [18.994584014199805, 72.89379984905598], [18.9943293530092, 72.89128293540844], [18.991647902487014, 72.8875956971073], [18.992442797578363, 72.88705313812605], [19.00110727538031, 72.88645965620033], [19.015360854976436, 72.88404801886058], [19.016170502985734, 72.88357505360837], [19.01979297423322, 72.87954740833409], [19.021767214552153, 72.87807717793406], [19.023869209913613, 72.87729757958205], [19.025576675129777, 72.87737783283305], [19.028664358378794, 72.87813041013969], [19.030687178202406, 72.87878442054107], [19.034741031553136, 72.88083853796938], [19.03751503101929, 72.88138156587495], [19.042118005992013, 72.88073380644491], [19.045634948275566, 72.87978677337344], [19.04691497934284, 72.87998717563643], [19.04775815550501, 72.87932037324961], [19.04782364049074, 72.87823176819609], [19.07153917827631, 72.89518129347688], [19.072027458214684, 72.89790360990558], [19.07185347987469, 72.89922823560758], [19.072976074708095, 72.90193436170911], [19.07277103717654, 72.90226957330556], [19.073633826247587, 72.90277096414971]]]}}, {"type": "Feature", "properties": {"id": "Z10", "ward": "H/E", "name": "H/E", "shops": 74, "waterlogging_prone": true}, "geometry": {"type": "Polygon", "coordinates": [[[19.084002231640437, 72.85931742593978], [19.082039591594906, 72.85846313090887], [19.082082634883648, 72.85882335074233], [19.083865677904054, 72.85980495508677], [19.083754410030007, 72.8604022946568], [19.082013494179385, 72.86128257089636], [19.08168113568047, 72.86216062097877], [19.08242679421788, 72.86419494239546], [19.083645744001686, 72.86492204245634], [19.08244736215268, 72.8664284451245], [19.082455477683414, 72.86850574579891], [19.07892615654773, 72.87593497462402], [19.077497849091305, 72.87492668417586], [19.075982886225024, 72.87126649998464], [19.075677695171795, 72.87113007416112], [19.072449643579063, 72.87212527922105], [19.071692136818424, 72.87255429624318], [19.071338667842284, 72.87336473287941], [19.066860877955683, 72.8725097878718], [19.065789865654025, 72.87250186583802], [19.065041409447854, 72.87297716469968], [19.0637777216713, 72.87292652019659], [19.06154660233721, 72.87139038831786], [19.06051330134042, 72.87128133541891], [19.05740129123835, 72.86951768799241], [19.052333142479792, 72.86355847489955], [19.05102687324719, 72.84321839119605], [19.05635631487153, 72.84139560538372], [19.071490849509733, 72.84089031153201], [19.080446418992423, 72.84137017520375], [19.090422936599932, 72.84281273830045], [19.090678912454095, 72.84376446831362], [19.089753962011866, 72.84587697320194], [19.08922418927086, 72.84620481722645], [19.08942456346624, 72.84789853398797], [19.08903885128458, 72.8485270986067], [19.089213443960887, 72.84901840261894], [19.0888171228942, 72.84938805291908], [19.0912043466129, 72.85220305031604], [19.092656514619915, 72.85611179249611], [19.094425213770858, 72.8578740317643], [19.093048158877906, 72.86033929978953], [19.08874299144587, 72.85769813850118], [19.088434718164233, 72.8591841870382], [19.08791593042723, 72.85915813574553], [19.087373260476344, 72.85975410985567], [19.084002231640437, 72.85931742593978]]]}}, {"type": "Feature", "properties": {"id": "Z11", "ward": "H/W", "name": "H/W", "shops": 68, "waterlogging_prone": false}, "geometry": {"type": "Polygon", "coordinates": [[[19.090422936599932, 72.84281273830045], [19.080446418992423, 72.84137017520375], [19.071490849509733, 72.84089031153201], [19.05635631487153, 72.84139560538372], [19.05102687324719, 72.84321839119605], [19.05095091363211, 72.84216200169045], [19.04820790966788, 72.8380395395298], [19.048918813048104, 72.83800472575987], [19.04931836823786, 72.83742853415669], [19.049035441197375, 72.83643607665948], [19.049490250368702, 72.8353933288733], [19.049421665299974, 72.83376997381772], [19.048597717753548, 72.83234398280234], [19.046051798632153, 72.8297582427496], [19.045519625575686, 72.82976516328209], [19.044915446291647, 72.82930659910853], [19.04420720495368, 72.82754342004846], [19.042534484603408, 72.82485999439928], [19.042027144022633, 72.82321084518527], [19.04107174611483, 72.82306006101581], [19.041131391757055, 72.8224762724634], [19.040289063046032, 72.82251058030124], [19.04068213919951, 72.82199240515745], [19.041681129059945, 72.82180332800002], [19.040859086922175, 72.8192416538236], [19.041792833063695, 72.81840143314227], [19.041682896455015, 72.81807541119632], [19.042321630816236, 72.81809980026267], [19.04284856233094, 72.81771327892879], [19.042990930280528, 72.81719551775353], [19.044147140421643, 72.8174007353302], [19.04556588367135, 72.81864041302374], [19.050332615886838, 72.82104862359846], [19.053519234951764, 72.8219487741483], [19.055003535292975, 72.82353310893984], [19.05586867224196, 72.8234763106854], [19.05592948464807, 72.82373727863913], [19.056014792700868, 72.8231823517494], [19.05672115234585, 72.82288225261013], [19.056839797015193, 72.82321686492541], [19.05713950576181, 72.82293539057028], [19.05730328490732, 72.82230502237425], [19.05812726719573, 72.82125397540023], [19.058644671165112, 72.82117662028307], [19.058981027550406, 72.8205264646023], [19.06025354182767, 72.82122466751704], [19.062366790034233, 72.82160805844026], [19.062317480413068, 72.82195104724572], [19.06457573901028, 72.82273574734269], [19.067674888278134, 72.82212390231673], [19.06951681587607, 72.82239284479124], [19.07384750319811, 72.82126159871046], [19.074831860083844, 72.82186920513114], [19.076469968752527, 72.82139360293586], [19.0772932651226, 72.8215146973275], [19.078764861274845, 72.8226066704536], [19.079269550673096, 72.82342097256137], [19.082049041439138, 72.8226690275438], [19.08242802663406, 72.82310058549922], [19.081036574503138, 72.82399399101311], [19.079902554672447, 72.82588438103353], [19.081079929518936, 72.82780476522485], [19.082357533523066, 72.8283522412944], [19.083710297322142, 72.82979389918785], [19.085355017034882, 72.8304069601234], [19.08483343090078, 72.83219604042245], [19.086369670393783, 72.83252167606388], [19.08668018318212, 72.83812470125991], [19.089719767030488, 72.83827451384158], [19.090568325471438, 72.84155136179275], [19.090422936599932, 72.84281273830045]]]}}, {"type": "Feature", "properties": {"id": "Z12", "ward": "E", "name": "Byculla", "shops": 125, "waterlogging_prone": false}, "geometry": {"type": "Polygon", "coordinates": [[[18.98183417917781, 72.84677216249192], [18.981428776620913, 72.84657841395143], [18.979952912152356, 72.85024904222104], [18.978956286598766, 72.85004924185768], [18.977812719493816, 72.8556644809159], [18.97667487360677, 72.85535645023239], [18.977821851048407, 72.84983757859966], [18.977545362760605, 72.84955597536697], [18.97646016867862, 72.84950084842433], [18.976115466999385, 72.85119603970762], [18.97656494456875, 72.85146604003167], [18.975659601547264, 72.85589971941566], [18.975378018857317, 72.85590483038607], [18.97455192687016, 72.85540686562906], [18.975494673732168, 72.85103652268477], [18.975002909563624, 72.85090169543395], [18.975278807506516, 72.84943600667772], [18.974809641148045, 72.84933179382013], [18.97378976032745, 72.85420257240145], [18.972029097481162, 72.85368014325614], [18.97231591622554, 72.8513312789863], [18.973042213317655, 72.84972718902101], [18.97225773733301, 72.85009420679417], [18.97148828224538, 72.84986802980193], [18.970370741960604, 72.85079776594047], [18.970023885510784, 72.85075725396622], [18.969719606420362, 72.8530006220191], [18.969291786417486, 72.8529790833899], [18.96943568197442, 72.85072271056843], [18.968759649400283, 72.85136014048845], [18.968715347961563, 72.8521530863924], [18.96780768527249, 72.85229654785896], [18.967834530163884, 72.85141102299131], [18.967018740986333, 72.8511860966267], [18.967161756960056, 72.85038234384078], [18.966340647004795, 72.85041491566135], [18.96633665171801, 72.84982710484799], [18.96603782074091, 72.84977868736924], [18.965986530822423, 72.85005405780527], [18.963395411714504, 72.84937556794542], [18.96375084980311, 72.84767160168454], [18.963448849649374, 72.84760525654566], [18.963655366841568, 72.84662396806343], [18.96327761371549, 72.84530055258368], [18.963584349889278, 72.84486135522332], [18.963460825994073, 72.84430272870473], [18.964469819666505, 72.83944136179316], [18.965107811805254, 72.83881613726003], [18.962570949268382, 72.8373208771013], [18.962522166948865, 72.83526158059868], [18.962132740465307, 72.83438423366482], [18.96187858330593, 72.83211481205485], [18.961759976320202, 72.82448897484647], [18.967936323955204, 72.82520331454037], [18.968622686443638, 72.82258091255143], [18.96902305093934, 72.81858195211835], [18.980372112729707, 72.8231903045653], [18.9810054007677, 72.82635537947436], [18.98142674605699, 72.82655977123402], [18.98142207581877, 72.8270551023064], [18.988119194495866, 72.83312155519745], [18.988498435210147, 72.83529347782161], [18.988130381194175, 72.84137878789689], [18.983179812087037, 72.84260679548812], [18.982949560872008, 72.84413284042608], [18.98183417917781, 72.84677216249192]]]}}, {"type": "Feature", "properties": {"id": "Z13", "ward": "K/E", "name": "K/E", "shops": 113, "waterlogging_prone": false}, "geometry": {"type": "Polygon", "coordinates": [[[19.142519574975992, 72.85272462818516], [19.142501801325896, 72.85431254705122], [19.141943387603266, 72.85525888010041], [19.141605000734256, 72.85704877897967], [19.141955996064766, 72.86250823275849], [19.14129883681518, 72.86387739584848], [19.141056626071826, 72.86587810671728], [19.138535367164742, 72.87538300345986], [19.138388980183525, 72.8744534600897], [19.13758295464223, 72.87472032493436], [19.137810263041988, 72.87595788248133], [19.138727137413266, 72.87655958670263], [19.138563314605417, 72.87736048240748], [19.138789194300603, 72.87780555324271], [19.139570417448546, 72.87833346311561], [19.137964647849945, 72.8788300889914], [19.1368543733479, 72.88524603287792], [19.137577115943536, 72.88558384286254], [19.135651231495153, 72.8906850615154], [19.13221087286179, 72.88858517866407], [19.131205037595084, 72.88871441238277], [19.130075556647924, 72.88688582744135], [19.129428521198246, 72.88639500701555], [19.129537893582416, 72.88477156543061], [19.12833694485524, 72.88474376080477], [19.12752963369438, 72.88547536183725], [19.127123732453608, 72.88648004400014], [19.122793159332716, 72.88752958315156], [19.121916548219716, 72.88858820451745], [19.121491150661644, 72.88852442891594], [19.12066822202538, 72.88663299798277], [19.11862968131417, 72.88584846524033], [19.116068710443987, 72.88615949558377], [19.11405720543807, 72.88732048487951], [19.113047020555594, 72.88667138110154], [19.11269650390244, 72.88587473231472], [19.11163102238398, 72.88526909698527], [19.111015732032197, 72.88535763979746], [19.109841162564845, 72.88695614556904], [19.109247412629372, 72.88705656409348], [19.107237934295334, 72.88634332263634], [19.10554127924727, 72.88410851855465], [19.10464467363803, 72.88410915604184], [19.103821046628443, 72.88363868951639], [19.102413143912305, 72.88036102124342], [19.099750187717387, 72.87913205784658], [19.098554615448187, 72.87909397327564], [19.098039205435896, 72.88067780362181], [19.096651213371185, 72.88095059935011], [19.094786488523653, 72.87973888881861], [19.094257357711346, 72.87869635549785], [19.09329371237339, 72.87829398939218], [19.091960177318256, 72.87845087814452], [19.091076590227267, 72.87890024186675], [19.090879213395183, 72.87871554062474], [19.090344680981282, 72.87923990626769], [19.088445010688023, 72.87875585628325], [19.085979225313785, 72.87916214207519], [19.086168168001233, 72.87625884713127], [19.084745449292924, 72.876004357786], [19.081725568841595, 72.87012339549847], [19.082511674853585, 72.86831515633637], [19.08244736215268, 72.8664284451245], [19.083645744001686, 72.86492204245634], [19.08242679421788, 72.86419494239546], [19.081812299801822, 72.86294075091331], [19.081761281902654, 72.86168865009623], [19.08279405147383, 72.86068643656989], [19.083754410030007, 72.8604022946568], [19.083879072855932, 72.85989143330714], [19.082082634883648, 72.85882335074233], [19.082039591594906, 72.85846313090887], [19.08393163909706, 72.85930846966427], [19.087373260476344, 72.85975410985567], [19.08791593042723, 72.85915813574553], [19.088434718164233, 72.8591841870382], [19.08874299144587, 72.85769813850118], [19.093048158877906, 72.86033929978953], [19.094425213770858, 72.8578740317643], [19.092656514619915, 72.85611179249611], [19.0912043466129, 72.85220305031604], [19.0888171228942, 72.84938805291908], [19.089213443960887, 72.84901840261894], [19.08903885128458, 72.8485270986067], [19.08942456346624, 72.84789853398797], [19.08922418927086, 72.84620481722645], [19.089753962011866, 72.84587697320194], [19.090678912454095, 72.84376446831362], [19.090422936599932, 72.84281273830045], [19.14355746773086, 72.84997650289054], [19.14326566957853, 72.85251459236251], [19.142519574975992, 72.85272462818516]]]}}, {"type": "Feature", "properties": {"id": "Z14", "ward": "K/W", "name": "K/W", "shops": 103, "waterlogging_prone": true}, "geometry": {"type": "Polygon", "coordinates": [[[19.132572974798524, 72.78284409760738], [19.13260976855197, 72.78138375043636], [19.13368643732642, 72.78042474758459], [19.13450318059335, 72.7804710801763], [19.13525041130711, 72.78152021925979], [19.134535300193484, 72.78313277154545], [19.13358841437705, 72.78357478506818], [19.132572974798524, 72.78284409760738]], [[19.155702833597257, 72.82035464018132], [19.150512303237893, 72.82200607463928], [19.15395666782224, 72.82799372210117], [19.15129086643473, 72.83290492075938], [19.150874707338115, 72.8394542921398], [19.14985514298512, 72.84035548545741], [19.150200734641043, 72.84339677563719], [19.149507081162803, 72.84441165658595], [19.148460968772422, 72.84524839450283], [19.147632551212094, 72.84549100904222], [19.1470677557375, 72.84629357234635], [19.14658284215938, 72.84593130874408], [19.14612077601777, 72.84653532092625], [19.146235385214066, 72.84747271670015], [19.14577643600915, 72.84801181700237], [19.14464139980819, 72.84847378163063], [19.143841922678444, 72.8483574810844], [19.14355746773086, 72.84997650289054], [19.090422936599932, 72.84281273830045], [19.090568325471438, 72.84155136179275], [19.089719767030488, 72.83827451384158], [19.08668018318212, 72.83812470125991], [19.086369670393783, 72.83252167606388], [19.08483343090078, 72.83219604042245], [19.085355017034882, 72.8304069601234], [19.083710297322142, 72.82979389918785], [19.082357533523066, 72.8283522412944], [19.081079929518936, 72.82780476522485], [19.079902554672447, 72.82588438103353], [19.081036574503138, 72.82399399101311], [19.08243703293817, 72.82309342554119], [19.083688034509652, 72.82339019764346], [19.08368765852658, 72.82389973032575], [19.084039559612716, 72.82413692207336], [19.087143920514183, 72.82562993218038], [19.09026829574243, 72.82654200567859], [19.09639012876948, 72.82626882990326], [19.10289704738568, 72.82415475710157], [19.109866001677183, 72.82285061737844], [19.11481863238257, 72.82139150854262], [19.11992050199077, 72.81910770607189], [19.12986268221218, 72.8130549578917], [19.13362296945671, 72.8101357784794], [19.13882952900939, 72.80519555120644], [19.132918434815814, 72.79485111322603], [19.131616674701924, 72.79516423201562], [19.130702165506083, 72.79298860406675], [19.13133740579631, 72.79181366413114], [19.131131314031975, 72.7896216975659], [19.12987591503099, 72.78814159582105], [19.130063326942825, 72.78720274023522], [19.130426529341953, 72.78803057554671], [19.132664075622138, 72.78765595230142], [19.134841339689416, 72.78830149703025], [19.13927848791766, 72.7885522485292], [19.140263868213722, 72.788130551165], [19.14161767796053, 72.78819884649107], [19.142120857049072, 72.78767617878103], [19.14465981010265, 72.78864512503218], [19.144982351393086, 72.79016310685253], [19.144883565171373, 72.79144512105765], [19.144155085122176, 72.79308633991648], [19.14279597394387, 72.79460868555442], [19.14276642340201, 72.79502178824976], [19.14244314932694, 72.79505149892779], [19.142006920842014, 72.79606947408828], [19.142847448466828, 72.79814166002743], [19.139733110886084, 72.79820911877621], [19.138627436149978, 72.8012769551194], [19.14456546838043, 72.80402046842545], [19.14707340858537, 72.80472927565222], [19.14994555036767, 72.80602166083314], [19.15599533530079, 72.81104107545919], [19.15326397964325, 72.81374862150466], [19.156534817842466, 72.818225296819], [19.155702833597257, 72.82035464018132]]]}}, {"type": "Feature", "properties": {"id": "Z15", "ward": "L", "name": "L", "shops": 44, "waterlogging_prone": true}, "geometry": {"type": "Polygon", "coordinates": [[[19.10813679935135, 72.90800999583514], [19.107071098782132, 72.90672203544351], [19.104595844057663, 72.90500772377564], [19.10327621867533, 72.9045984355914], [19.102327995821483, 72.90364205007022], [19.101396211827925, 72.90198585051738], [19.100385431419312, 72.90098772932268], [19.099448706393137, 72.90058509380465], [19.098993720743504, 72.89968724999879], [19.096017736639062, 72.89876318547611], [19.095765322612795, 72.89934035485676], [19.094551786381285, 72.89970146120022], [19.093823541783443, 72.89957587323283], [19.092589161535752, 72.89838739646656], [19.09162590125323, 72.8967408630275], [19.09157941672605, 72.89594382913512], [19.092133884034777, 72.89570360917047], [19.092284660953336, 72.89497407554613], [19.091216203256415, 72.89489280427627], [19.09103073401118, 72.89434282169148], [19.08847681614314, 72.89462330973214], [19.08666719437207, 72.89417357105329], [19.085716844509754, 72.89441853091115], [19.08508377763322, 72.89267139880033], [19.08335059628646, 72.89375104707763], [19.080984707242358, 72.89387480101428], [19.072412528152125, 72.89144943475145], [19.06842776694477, 72.89106167126711], [19.0681682652096, 72.89271297948025], [19.047969376214645, 72.87835438882729], [19.04818561902179, 72.87753553811349], [19.049021953238892, 72.87667963741228], [19.048854346980622, 72.87595465871983], [19.04989719403494, 72.87370265535037], [19.04994689661563, 72.87199249847235], [19.051127335933586, 72.87103335331473], [19.051412551734174, 72.86888966872263], [19.052584965850084, 72.86752565758519], [19.052373930607175, 72.86737674234014], [19.052333142479792, 72.86355847489955], [19.05740129123835, 72.86951768799241], [19.06051330134042, 72.87128133541891], [19.06154660233721, 72.87139038831786], [19.064220175152084, 72.87304270450824], [19.0662443304956, 72.87247873715381], [19.071338667842284, 72.87336473287941], [19.071692136818424, 72.87255429624318], [19.072449643579063, 72.87212527922105], [19.075677695171795, 72.87113007416112], [19.075982886225024, 72.87126649998464], [19.077497849091305, 72.87492668417586], [19.07892615654773, 72.87593497462402], [19.08171339711606, 72.87011004947676], [19.084745449292924, 72.876004357786], [19.086168168001233, 72.87625884713127], [19.085979225313785, 72.87916214207519], [19.088445010688023, 72.87875585628325], [19.090344680981282, 72.87923990626769], [19.090879213395183, 72.87871554062474], [19.091076590227267, 72.87890024186675], [19.091960177318256, 72.87845087814452], [19.09329371237339, 72.87829398939218], [19.094257357711346, 72.87869635549785], [19.094786488523653, 72.87973888881861], [19.096651213371185, 72.88095059935011], [19.098039205435896, 72.88067780362181], [19.098554615448187, 72.87909397327564], [19.099750187717387, 72.87913205784658], [19.102413143912305, 72.88036102124342], [19.103821046628443, 72.88363868951639], [19.10464467363803, 72.88410915604184], [19.10554127924727, 72.88410851855465], [19.107237934295334, 72.88634332263634], [19.10908808719251, 72.88701856676556], [19.109841162564845, 72.88695614556904], [19.111015732032197, 72.88535763979746], [19.11163102238398, 72.88526909698527], [19.11269650390244, 72.88587473231472], [19.113047020555594, 72.88667138110154], [19.11405720543807, 72.88732048487951], [19.116068710443987, 72.88615949558377], [19.11862968131417, 72.88584846524033], [19.12066822202538, 72.88663299798277], [19.121491150661644, 72.88852442891594], [19.121916548219716, 72.88858820451745], [19.122793159332716, 72.88752958315156], [19.127123732453608, 72.88648004400014], [19.12777263907522, 72.88515758401756], [19.12833694485524, 72.88474376080477], [19.12868014520159, 72.88489398568538], [19.129178410411786, 72.8864084204052], [19.125496342860405, 72.89186735698132], [19.124548802649723, 72.89573103499757], [19.12096082109777, 72.89608736106143], [19.120101472182508, 72.89833954473194], [19.11750212875574, 72.90326588324281], [19.116910173447078, 72.9033175547643], [19.115271696308508, 72.90448683708387], [19.111985039715687, 72.90454830196636], [19.110958608651973, 72.90671379752827], [19.10813679935135, 72.90800999583514]]]}}, {"type": "Feature", "properties": {"id": "Z16", "ward": "M/E", "name": "M/E", "shops": 104, "waterlogging_prone": false}, "geometry": {"type": "Polygon", "coordinates": [[[19.069127844095608, 72.93647005701013], [19.064640504414715, 72.93880699765744], [19.061417185394735, 72.94134025764156], [19.0567322105725, 72.94229518246897], [19.056475396077307, 72.94271473240742], [19.056435592690743, 72.94363039820428], [19.05882963370861, 72.94925013040032], [19.062101311974377, 72.95192151540476], [19.063386499383167, 72.95371244661442], [19.0634816120528, 72.95643869095775], [19.063037683141633, 72.95764765445517], [19.061547884524963, 72.95947113905449], [19.06019855280484, 72.96023846347067], [19.056880446792842, 72.9605985970234], [19.049108633749107, 72.95950447773102], [19.048079678686875, 72.95979906038004], [19.04419467917093, 72.95833919264419], [19.041764690198068, 72.95669898594555], [19.038341151974677, 72.953521905352], [19.03751462872711, 72.95485299038528], [19.0363566742456, 72.9539600613123], [19.035715139754934, 72.95286563667834], [19.03096852961481, 72.95155944707766], [19.03049048490187, 72.95111557147563], [19.028706070099332, 72.94807837049898], [19.02479397685385, 72.93851025542189], [19.02649810092308, 72.93716639994481], [19.026174669257486, 72.93532149897366], [19.025306727398632, 72.93351606068421], [19.02492092914341, 72.93313085942277], [19.022836992753817, 72.93251040322626], [19.0216967907091, 72.93099807558205], [19.016490139117096, 72.92694568994588], [19.015466450687853, 72.92705554357778], [19.00714433489997, 72.92061402791184], [19.002896386920714, 72.91801327283595], [18.99739778724611, 72.91295326367359], [18.996077907520167, 72.91019979867532], [18.99576910269357, 72.90737352337052], [18.993988930658467, 72.90444525353955], [19.002968061998104, 72.90432224907552], [19.003131368273678, 72.90491058227816], [19.00677019610119, 72.90538626925947], [19.00792017461391, 72.90104546041374], [19.008789336315058, 72.89998353726754], [19.009334167207076, 72.89846765591338], [19.027491735847104, 72.89767943563146], [19.029487679170234, 72.89691745738594], [19.032454051645576, 72.89648573292968], [19.036318014053286, 72.8951254301548], [19.039369864424447, 72.89471286235165], [19.04094174178026, 72.89388649690251], [19.041419555690624, 72.8951927253073], [19.0426468925011, 72.8952844779238], [19.04239835006634, 72.89604753646238], [19.043792207396155, 72.89656395026873], [19.04465939785735, 72.89874810411007], [19.0460866553572, 72.89882823457202], [19.04571348530463, 72.90934002065369], [19.050708988984255, 72.9104949636313], [19.05517195442704, 72.91108406394801], [19.057226712675952, 72.91237327276913], [19.059730886557446, 72.90772582910847], [19.060015603176502, 72.90800001105613], [19.060300860764446, 72.90756844605252], [19.0649422905411, 72.91178623356875], [19.06501879740906, 72.91156383312787], [19.066543726194812, 72.91640852893693], [19.06792597584949, 72.91917586171444], [19.06856548585364, 72.91975791825736], [19.07377301342089, 72.92100560037916], [19.07506187170736, 72.92221689068987], [19.075880440031934, 72.92443673847517], [19.076005963016538, 72.92567409598826], [19.07548707537969, 72.92914952934264], [19.07333087758224, 72.93243397657429], [19.071164810039974, 72.93491246236188], [19.069127844095608, 72.93647005701013]]]}}, {"type": "Feature", "properties": {"id": "Z17", "ward": "N", "name": "N", "shops": 96, "waterlogging_prone": false}, "geometry": {"type": "Polygon", "coordinates": [[[19.109110321219376, 72.9166989658662], [19.108971310193557, 72.9163018508947], [19.107611428044823, 72.91551320438829], [19.10631376869653, 72.91610136118935], [19.105028684500894, 72.91591202074508], [19.10486123410737, 72.91655734780775], [19.10242436166147, 72.91994670014599], [19.10777208797109, 72.92378003923086], [19.110752165409195, 72.9254978249136], [19.111067140175162, 72.9267664608025], [19.110806561036405, 72.92688902271131], [19.110629757278904, 72.9282335824955], [19.10880770255176, 72.9331721156448], [19.11077570988403, 72.93407004602419], [19.11086651286063, 72.93461734990234], [19.113082590120552, 72.93633873456878], [19.11410895691692, 72.94128244279572], [19.114758472284723, 72.94292589068348], [19.108295530889155, 72.94613966371023], [19.10369656113028, 72.9477195482275], [19.09204955250618, 72.9479210626635], [19.088477632348813, 72.9490632032432], [19.08402564035651, 72.94914940941061], [19.082328777374634, 72.95010007159566], [19.07886684987076, 72.95114829140499], [19.076988456565086, 72.95275324560923], [19.072569723084317, 72.95448367207929], [19.069130038061896, 72.9543757193792], [19.06553158861471, 72.95638788616007], [19.063500193239975, 72.95633675594787], [19.063386499383167, 72.95371244661442], [19.062101311974377, 72.95192151540476], [19.05882963370861, 72.94925013040032], [19.056435592690743, 72.94363039820428], [19.056475396077307, 72.94271473240742], [19.0567322105725, 72.94229518246897], [19.061417185394735, 72.94134025764156], [19.064640504414715, 72.93880699765744], [19.070111529627592, 72.93576386371917], [19.072663747718007, 72.93323777853546], [19.074593170440952, 72.93059256212065], [19.07548707537969, 72.92914952934264], [19.07597251044428, 72.92710905434281], [19.075880440031934, 72.92443673847517], [19.074558031839306, 72.9215189518109], [19.07377301342089, 72.92100560037916], [19.06856548585364, 72.91975791825736], [19.06792597584949, 72.91917586171444], [19.06532255653207, 72.91302875636364], [19.06510008213558, 72.911738757298], [19.068081636892604, 72.9101127505603], [19.069563824630478, 72.90986690184447], [19.069512774564522, 72.90950763323077], [19.07040074320125, 72.90925052225533], [19.07035235797316, 72.90767934807964], [19.071959265664148, 72.90730207977232], [19.07158152789059, 72.90521513264109], [19.073643678065054, 72.90285704956078], [19.07277103717654, 72.90226957330556], [19.072976074708095, 72.90193436170911], [19.07185347987469, 72.89922823560758], [19.072027458214684, 72.89790360990558], [19.071576890426183, 72.89525485116333], [19.0681682652096, 72.89271297948025], [19.06842776694477, 72.89106167126711], [19.072412528152125, 72.89144943475145], [19.080984707242358, 72.89387480101428], [19.08335059628646, 72.89375104707763], [19.08508377763322, 72.89267139880033], [19.085716844509754, 72.89441853091115], [19.08666719437207, 72.89417357105329], [19.08847681614314, 72.89462330973214], [19.09103073401118, 72.89434282169148], [19.091216203256415, 72.89489280427627], [19.092284660953336, 72.89497407554613], [19.092133884034777, 72.89570360917047], [19.09157941672605, 72.89594382913512], [19.09162590125323, 72.8967408630275], [19.09334935023828, 72.89916865420525], [19.094551786381285, 72.89970146120022], [19.095765322612795, 72.89934035485676], [19.096017736639062, 72.89876318547611], [19.098993720743504, 72.89968724999879], [19.099448706393137, 72.90058509380465], [19.100385431419312, 72.90098772932268], [19.101396211827925, 72.90198585051738], [19.102327995821483, 72.90364205007022], [19.10327621867533, 72.9045984355914], [19.104595844057663, 72.90500772377564], [19.1071683381147, 72.9067945673228], [19.1084087309703, 72.90835494872388], [19.108298373800164, 72.90904576592493], [19.10863123134903, 72.90978074423722], [19.110652593020532, 72.91330247478082], [19.111812130765298, 72.91408934881255], [19.1151554403098, 72.91521243635907], [19.11550048249771, 72.91635477338134], [19.117047269400608, 72.91830352391345], [19.11081196995573, 72.91845931931124], [19.110577947409244, 72.91762073994913], [19.109110321219376, 72.9166989658662]]]}}, {"type": "Feature", "properties": {"id": "Z18", "ward": "P/S", "name": "P/S", "shops": 35, "waterlogging_prone": false}, "geometry": {"type": "Polygon", "coordinates": [[[19.179329348314585, 72.83770290243805], [19.178880993774726, 72.84480226232127], [19.178111651352534, 72.8462824883361], [19.17774827400235, 72.84855799227233], [19.17642085278126, 72.85049703721015], [19.176279864289906, 72.85141895870865], [19.17747258027346, 72.85676451351958], [19.17723058698706, 72.85705335203093], [19.175799222022345, 72.85720814738791], [19.1753640539928, 72.85786601629584], [19.17540044836702, 72.85937801443836], [19.174357028006657, 72.85947358166727], [19.17583690460906, 72.8666892011775], [19.175560949744536, 72.86900395780985], [19.17596540413178, 72.8740326555078], [19.170469728932222, 72.87460991362043], [19.167749529210074, 72.87621288785873], [19.166620820246457, 72.87742013132991], [19.164542294712085, 72.88204604572785], [19.162602383753743, 72.88869999767101], [19.16284082376306, 72.89037177159065], [19.163881897533862, 72.89234307961391], [19.163176761999278, 72.89247551963268], [19.160266851012107, 72.89155143403784], [19.15988956658424, 72.89046886071218], [19.157632489259306, 72.89045652726584], [19.156848107390733, 72.8894130077402], [19.153707986433876, 72.89350046804893], [19.150677152793545, 72.89298481377539], [19.14729508664223, 72.89498977651577], [19.14490364579951, 72.89528408177823], [19.14200443634934, 72.89413990697794], [19.14210690618891, 72.89332699676123], [19.13948718121297, 72.89448119184134], [19.137989315371474, 72.89377976161292], [19.13640646296373, 72.89196781542388], [19.136147014175855, 72.890925199586], [19.135613184709964, 72.89069653331934], [19.137577115943536, 72.88558384286254], [19.1368543733479, 72.88524603287792], [19.137964647849945, 72.8788300889914], [19.139570417448546, 72.87833346311561], [19.138789194300603, 72.87780555324271], [19.138563314605417, 72.87736048240748], [19.138727137413266, 72.87655958670263], [19.137810263041988, 72.87595788248133], [19.13758295464223, 72.87472032493436], [19.138388980183525, 72.8744534600897], [19.138535367164742, 72.87538300345986], [19.141056626071826, 72.86587810671728], [19.14129883681518, 72.86387739584848], [19.141955996064766, 72.86250823275849], [19.141605000734256, 72.85704877897967], [19.141943387603266, 72.85525888010041], [19.142501801325896, 72.85431254705122], [19.14248021730401, 72.85273713465595], [19.14326566957853, 72.85251459236251], [19.143841922678444, 72.8483574810844], [19.14464139980819, 72.84847378163063], [19.14577643600915, 72.84801181700237], [19.146235385214066, 72.84747271670015], [19.14612077601777, 72.84653532092625], [19.14658284215938, 72.84593130874408], [19.1470677557375, 72.84629357234635], [19.147632551212094, 72.84549100904222], [19.148460968772422, 72.84524839450283], [19.149507081162803, 72.84441165658595], [19.150229918031588, 72.84331717675454], [19.14985514298512, 72.84035548545741], [19.150874707338115, 72.8394542921398], [19.15129086643473, 72.83290492075938], [19.15395666782224, 72.82799372210117], [19.150512303237893, 72.82200607463928], [19.15438377989675, 72.82096548182422], [19.155702833597257, 72.82035464018132], [19.156002993276747, 72.81984733843366], [19.156534817842466, 72.818225296819], [19.15326397964325, 72.81374862150466], [19.15599533530079, 72.81104107545919], [19.169629783440577, 72.82503168581253], [19.17266152011385, 72.82575514379312], [19.174408666789716, 72.8272337104808], [19.175412076074796, 72.8287017273085], [19.17641992571198, 72.82930386116257], [19.178488525409605, 72.82963844164674], [19.17872914675439, 72.83494077659522], [19.179754942385546, 72.83633173511406], [19.179329348314585, 72.83770290243805]]]}}, {"type": "Feature", "properties": {"id": "Z19", "ward": "P/N", "name": "P/N", "shops": 92, "waterlogging_prone": false}, "geometry": {"type": "Polygon", "coordinates": [[[19.224507496592548, 72.79595988383296], [19.22446274499148, 72.79839091969923], [19.22355783252917, 72.80055423891874], [19.222715025779962, 72.80407159763227], [19.221081701639527, 72.80659307064494], [19.219336279260368, 72.80717179762442], [19.21720191202478, 72.80603047739257], [19.216776471477516, 72.80439433497529], [19.213501396860583, 72.80338593559011], [19.2119426719927, 72.80791967928829], [19.21076898995548, 72.80890323374099], [19.20969347085687, 72.80859632412425], [19.20861894756539, 72.80940663406415], [19.208406590239278, 72.8095970123816], [19.208713151047665, 72.81001530735783], [19.20859701128589, 72.81043760199964], [19.208058691771193, 72.81039103099867], [19.208257659497786, 72.81106648882597], [19.206501794524595, 72.81092074060739], [19.204797578909517, 72.81432435094837], [19.20443133041404, 72.81598594128349], [19.20498533023625, 72.82283365032752], [19.204511609282136, 72.82301351155542], [19.20159393807858, 72.82742596424893], [19.199620343915573, 72.82857453723038], [19.19925141060623, 72.82938547238047], [19.1977045597729, 72.82910769463997], [19.19626390789221, 72.83065057882216], [19.198220771617006, 72.83185776411851], [19.19919319924056, 72.83189203587894], [19.199422670461562, 72.8328389774158], [19.199175298919386, 72.83288047157632], [19.199695728574135, 72.83389659925186], [19.20004788217979, 72.83390526036527], [19.200996607394785, 72.83593168717792], [19.200427035383388, 72.83975731513355], [19.19939396343275, 72.84259310874248], [19.196379304242758, 72.84450554346186], [19.19644049094764, 72.84509746654955], [19.19537882782304, 72.84523472331301], [19.19546320503408, 72.84672707022047], [19.194918817529953, 72.84752718177009], [19.194823359705403, 72.85055024848074], [19.19893046821125, 72.85116019957354], [19.19889871899089, 72.85367967357762], [19.1958946779481, 72.85410487045993], [19.195737632362974, 72.85359823489985], [19.193907759703855, 72.85365005786838], [19.193696698223906, 72.85510026176722], [19.194344090220905, 72.85629788714206], [19.194678805557924, 72.86034487433035], [19.19341000933022, 72.85981769390182], [19.191692022558556, 72.8612808045411], [19.190983985475995, 72.86404404594352], [19.19343004049289, 72.86476110523351], [19.193706462193234, 72.86808564094652], [19.19393810141074, 72.86804337289432], [19.193698728398573, 72.86957871075504], [19.194007038543447, 72.8729876573157], [19.19392131856948, 72.87429427245908], [19.193479321283274, 72.874592771215], [19.19286026149071, 72.87670677654454], [19.192477952811156, 72.88708096394754], [19.191192749628396, 72.89108099207066], [19.190540716588703, 72.89567505679915], [19.18920418999308, 72.89739074610615], [19.185101803305113, 72.900188201565], [19.18130187460355, 72.90001763252994], [19.179927456898245, 72.90026532634027], [19.176088511261295, 72.89932886046095], [19.173598724180263, 72.89704853111058], [19.163881897533862, 72.89234307961391], [19.162568310504103, 72.8892931325434], [19.164542294712085, 72.88204604572785], [19.167081465375496, 72.8768177227247], [19.170469728932222, 72.87460991362043], [19.17596540413178, 72.8740326555078], [19.175560949744536, 72.86900395780985], [19.17583690460906, 72.8666892011775], [19.174357028006657, 72.85947358166727], [19.17540044836702, 72.85937801443836], [19.1753640539928, 72.85786601629584], [19.175799222022345, 72.85720814738791], [19.17723058698706, 72.85705335203093], [19.177484325046464, 72.85669850108623], [19.176279864289906, 72.85141895870865], [19.17642085278126, 72.85049703721015], [19.17774827400235, 72.84855799227233], [19.178111651352534, 72.8462824883361], [19.178880993774726, 72.84480226232127], [19.179331924011375, 72.8376288439668], [19.179757852545162, 72.8367813550523], [19.179732534219504, 72.83628569037974], [19.17872914675439, 72.83494077659522], [19.178488525409605, 72.82963844164674], [19.17641992571198, 72.82930386116257], [19.175412076074796, 72.8287017273085], [19.174408666789716, 72.8272337104808], [19.17266152011385, 72.82575514379312], [19.169629783440577, 72.82503168581253], [19.155863822118466, 72.81090703479563], [19.14994555036767, 72.80602166083314], [19.14707340858537, 72.80472927565222], [19.14456546838043, 72.80402046842545], [19.138627436149978, 72.8012769551194], [19.139733110886084, 72.79820911877621], [19.142847448466828, 72.79814166002743], [19.142006920842014, 72.79606947408828], [19.14244314932694, 72.79505149892779], [19.14276642340201, 72.79502178824976], [19.14279597394387, 72.79460868555442], [19.144155085122176, 72.79308633991648], [19.144883565171373, 72.79144512105765], [19.144982351393086, 72.79016310685253], [19.14465981010265, 72.78864512503218], [19.14711539905796, 72.78913980315446], [19.14975065741708, 72.78872584401392], [19.152477653286024, 72.78713695202315], [19.154393961726456, 72.78447426612134], [19.156194286314996, 72.78426475046045], [19.157364590876934, 72.78377343322433], [19.157944038520412, 72.7826513906374], [19.157897443948574, 72.78171600357209], [19.159006163711073, 72.7823326113029], [19.15947849609975, 72.78356240209989], [19.160671778293224, 72.78374659528183], [19.16208031740019, 72.78319038321396], [19.16382362562288, 72.78140641823768], [19.164793808816274, 72.78107398842326], [19.167129271855856, 72.78185132322096], [19.166983402727222, 72.78400591077498], [19.16632109539969, 72.7848840948464], [19.166543540994322, 72.78612693727925], [19.167690549931976, 72.78735910519283], [19.169841142639193, 72.78864260359875], [19.17101040912975, 72.79051638304902], [19.171401838001753, 72.79254230046726], [19.171853304068144, 72.79315553435322], [19.18002023890748, 72.79606191636803], [19.183300024356544, 72.79573993795496], [19.187537042031657, 72.79621700971508], [19.1907225528272, 72.79538596401655], [19.193623555831074, 72.79655349411107], [19.194879795570788, 72.79655996348785], [19.196165982768843, 72.79640267525629], [19.195586607346723, 72.79295349455063], [19.19351225188153, 72.79128081563586], [19.193109804761793, 72.78973856549436], [19.194001667062413, 72.78762434552883], [19.193234953661968, 72.78393674575464], [19.193817062794903, 72.78311405275099], [19.193866334100104, 72.78234642973516], [19.19454525158854, 72.78166687279864], [19.1950317991019, 72.78157364558791], [19.197336247743586, 72.78241084859513], [19.199892036780586, 72.78265258798176], [19.200721947373395, 72.78332397461216], [19.200750737294833, 72.78496158983202], [19.20200376599626, 72.78574497301169], [19.202880005619697, 72.78584160748588], [19.20445351110549, 72.78542320529023], [19.206217814370316, 72.78375602811607], [19.206766050171847, 72.78202785561257], [19.206179083345397, 72.78051378922025], [19.20641783748619, 72.78008256022501], [19.210233520765627, 72.78037376220838], [19.211952234806386, 72.78127097229684], [19.213947896613753, 72.78153311806297], [19.215268710785555, 72.78147258675196], [19.217927995254936, 72.78029184517843], [19.218530266993138, 72.78103466322759], [19.2190861068207, 72.78022854697714], [19.219669897230812, 72.78010851040261], [19.220198311955237, 72.78143399888152], [19.222813685532756, 72.78100780427148], [19.223306533615926, 72.7819036233507], [19.22423696258617, 72.78217283702368], [19.224670094265715, 72.78293967210037], [19.225044104541016, 72.78498788583175], [19.22561002669129, 72.79482418034522], [19.224880055424414, 72.79523466840004], [19.224507496592548, 72.79595988383296]]]}}, {"type": "Feature", "properties": {"id": "Z20", "ward": "R/S", "name": "R/S", "shops": 114, "waterlogging_prone": false}, "geometry": {"type": "Polygon", "coordinates": [[[19.21588269234987, 72.8863267241976], [19.21161830901264, 72.88694606004934], [19.21011711059561, 72.89023376423047], [19.210719999061162, 72.89122999860636], [19.210514553244426, 72.89190546319449], [19.20932611608689, 72.89200807928411], [19.208292625750413, 72.89406892866495], [19.208552349276744, 72.89411179154025], [19.2084122304845, 72.89534124779324], [19.207629256284896, 72.89532266373679], [19.20487276617656, 72.89954018018717], [19.201061047758277, 72.90098509967031], [19.201388052582278, 72.90243946872954], [19.197251222995103, 72.90235762248182], [19.19636999982831, 72.9014686250776], [19.1915367065953, 72.90032263958875], [19.185101803305113, 72.900188201565], [19.18920418999308, 72.89739074610615], [19.190540716588703, 72.89567505679915], [19.191192749628396, 72.89108099207066], [19.192477952811156, 72.88708096394754], [19.19286026149071, 72.87670677654454], [19.193479321283274, 72.874592771215], [19.19396182563295, 72.87405111863337], [19.193698728398573, 72.86957871075504], [19.19393810141074, 72.86804337289432], [19.193706462193234, 72.86808564094652], [19.19343004049289, 72.86476110523351], [19.190983985475995, 72.86404404594352], [19.19157573883138, 72.86145623997217], [19.19341000933022, 72.85981769390182], [19.194678805557924, 72.86034487433035], [19.194344090220905, 72.85629788714206], [19.193696698223906, 72.85510026176722], [19.193907759703855, 72.85365005786838], [19.195737632362974, 72.85359823489985], [19.1958946779481, 72.85410487045993], [19.19889871899089, 72.85367967357762], [19.19893046821125, 72.85116019957354], [19.194823359705403, 72.85055024848074], [19.194918817529953, 72.84752718177009], [19.19546320503408, 72.84672707022047], [19.19537882782304, 72.84523472331301], [19.19644049094764, 72.84509746654955], [19.196379304242758, 72.84450554346186], [19.19939396343275, 72.84259310874248], [19.200427035383388, 72.83975731513355], [19.200996607394785, 72.83593168717792], [19.20004788217979, 72.83390526036527], [19.199695728574135, 72.83389659925186], [19.199175298919386, 72.83288047157632], [19.199422670461562, 72.8328389774158], [19.19919319924056, 72.83189203587894], [19.198220771617006, 72.83185776411851], [19.19626390789221, 72.83065057882216], [19.1977045597729, 72.82910769463997], [19.19925141060623, 72.82938547238047], [19.199620343915573, 72.82857453723038], [19.20159393807858, 72.82742596424893], [19.204511609282136, 72.82301351155542], [19.20498533023625, 72.82283365032752], [19.20437589741539, 72.81663174559543], [19.204797578909517, 72.81432435094837], [19.206501794524595, 72.81092074060739], [19.208257659497786, 72.81106648882597], [19.208058691771193, 72.81039103099867], [19.20859701128589, 72.81043760199964], [19.208713151047665, 72.81001530735783], [19.208406590239278, 72.8095970123816], [19.20861894756539, 72.80940663406415], [19.20969347085687, 72.80859632412425], [19.21076898995548, 72.80890323374099], [19.2119426719927, 72.80791967928829], [19.213501396860583, 72.80338593559011], [19.21414376486871, 72.80360612465398], [19.2156079438094, 72.82097570727333], [19.21538226681625, 72.83577610658436], [19.21510080156989, 72.83825720373301], [19.213117435015622, 72.84189843316453], [19.21215090707063, 72.84626975037574], [19.21244229569239, 72.84824227449522], [19.213855053659984, 72.85115569289322], [19.21353894027661, 72.85148722147821], [19.213906367714355, 72.85359705591019], [19.21298580645849, 72.85625018532977], [19.212892386883112, 72.85743892272195], [19.21307026621805, 72.86347971147138], [19.214553714015747, 72.86920152157528], [19.21444589726351, 72.87758128601139], [19.21411108997626, 72.87819649857849], [19.21732276043592, 72.88205678747131], [19.21588269234987, 72.8863267241976]]]}}, {"type": "Feature", "properties": {"id": "Z21", "ward": "R/C", "name": "R/C", "shops": 79, "waterlogging_prone": false}, "geometry": {"type": "Polygon", "coordinates": [[[19.261473068311528, 72.78986012403509], [19.262225240262698, 72.79610209430368], [19.262268884648318, 72.79972220513437], [19.26108285722324, 72.8008909560409], [19.260401684912782, 72.80035501709168], [19.25953919727081, 72.8008502315868], [19.258823201626267, 72.80080648990271], [19.259060882254715, 72.80166286288096], [19.258245899804443, 72.80353699686104], [19.25499188482574, 72.80784359105866], [19.24837336986821, 72.81483348496559], [19.247222445251758, 72.8165184703344], [19.246689718642525, 72.81822710630723], [19.24497300740153, 72.82720354002076], [19.247188616850142, 72.82917654117144], [19.24952036475506, 72.83496392932513], [19.24159416246942, 72.84416923878075], [19.238627592852033, 72.84852408861829], [19.238094659563753, 72.84984434273584], [19.237773964884692, 72.85517157961232], [19.23710130712741, 72.85798763509159], [19.237276880543654, 72.85866026049199], [19.23876358579429, 72.8589375830676], [19.239275961392607, 72.85921388378303], [19.239406208756144, 72.8597933785483], [19.238891990901564, 72.86101337547187], [19.237405853227003, 72.86293872837169], [19.23724392560678, 72.86415990475867], [19.238495977765986, 72.86435267345006], [19.238462619654186, 72.86705558785992], [19.23796251986188, 72.8702780446342], [19.238976051150864, 72.87766306618451], [19.249444677948325, 72.89358256592938], [19.24794296320038, 72.89869945218506], [19.2414519224375, 72.90102820940986], [19.232801963140894, 72.90879199832592], [19.229240731173206, 72.90948191426982], [19.228703109809885, 72.91009231919364], [19.226040888690388, 72.91097481631137], [19.21849124465618, 72.90991066841919], [19.21687044612593, 72.90824486739373], [19.21046611611312, 72.90745130081488], [19.207595403102815, 72.91016874256913], [19.202468508537226, 72.9089852551925], [19.201061047758277, 72.90098509967031], [19.20487276617656, 72.89954018018717], [19.207629256284896, 72.89532266373679], [19.2084122304845, 72.89534124779324], [19.208552349276744, 72.89411179154025], [19.208292625750413, 72.89406892866495], [19.20932611608689, 72.89200807928411], [19.210514553244426, 72.89190546319449], [19.210719999061162, 72.89122999860636], [19.21011711059561, 72.89023376423047], [19.21161830901264, 72.88694606004934], [19.21588269234987, 72.8863267241976], [19.21732276043592, 72.88205678747131], [19.21411108997626, 72.87819649857849], [19.21444589726351, 72.87758128601139], [19.214553714015747, 72.86920152157528], [19.21307026621805, 72.86347971147138], [19.212892386883112, 72.85743892272195], [19.21298580645849, 72.85625018532977], [19.213906367714355, 72.85359705591019], [19.21353894027661, 72.85148722147821], [19.213855053659984, 72.85115569289322], [19.21244229569239, 72.84824227449522], [19.21215090707063, 72.84626975037574], [19.213117435015622, 72.84189843316453], [19.21510080156989, 72.83825720373301], [19.21538226681625, 72.83577610658436], [19.2156079438094, 72.82097570727333], [19.21414376486871, 72.80360612465398], [19.21701676362341, 72.8045508503108], [19.21720191202478, 72.80603047739257], [19.219336279260368, 72.80717179762442], [19.221081701639527, 72.80659307064494], [19.222715025779962, 72.80407159763227], [19.22355783252917, 72.80055423891874], [19.22446274499148, 72.79839091969923], [19.224371176717327, 72.7962866992208], [19.224880055424414, 72.79523466840004], [19.22561002669129, 72.79482418034522], [19.225044104541016, 72.78498788583175], [19.224647338862596, 72.78288419061009], [19.22423696258617, 72.78217283702368], [19.223306533615926, 72.7819036233507], [19.222813685532756, 72.78100780427148], [19.220198311955237, 72.78143399888152], [19.219852366952175, 72.78021335468524], [19.2190861068207, 72.78022854697714], [19.21846924479035, 72.78103926486558], [19.217934398387374, 72.77998141960673], [19.21915340266456, 72.77906879999779], [19.220446893339926, 72.77906882240008], [19.220432179030276, 72.77830061076905], [19.22168197241586, 72.77769257868022], [19.22215045141911, 72.7767758819097], [19.22494514895082, 72.77633295153348], [19.225948237604346, 72.77658059175717], [19.226525512516, 72.77781712652369], [19.231011440021373, 72.78064101654226], [19.235476806881532, 72.77968143292432], [19.23697891965592, 72.77908225308794], [19.23801496485173, 72.77941183889281], [19.238564176832625, 72.7802713700317], [19.240465725141217, 72.78115553984478], [19.243047315581347, 72.78100888504109], [19.25028892707043, 72.78308922072432], [19.255437594709612, 72.78280736825211], [19.259766710961046, 72.78168803011155], [19.260077307962476, 72.782989753441], [19.26209519942776, 72.78424712902012], [19.263135436556826, 72.78452216434201], [19.264308758908577, 72.78403540142116], [19.264777862722728, 72.78415754825006], [19.263205988940236, 72.78831116035661], [19.261473068311528, 72.78986012403509]]]}}, {"type": "Feature", "properties": {"id": "Z22", "ward": "R/N", "name": "R/N", "shops": 113, "waterlogging_prone": false}, "geometry": {"type": "Polygon", "coordinates": [[[19.270175719714498, 72.85388310360263], [19.26957496282856, 72.85573439356682], [19.269715350411868, 72.85681053940577], [19.26864142393638, 72.85690137329667], [19.268201235735916, 72.85918953566377], [19.26668352503775, 72.86117903332419], [19.26704802147665, 72.86249940124027], [19.267785898869818, 72.86263774684149], [19.26602753046763, 72.86464955472596], [19.266581272951083, 72.86618557144128], [19.264660099898858, 72.86593441179278], [19.261141057181646, 72.8688527688586], [19.262002654937827, 72.86892053404462], [19.26209291071511, 72.86935773187142], [19.26172756882438, 72.8699151885257], [19.260611076227974, 72.86981540849824], [19.261077333567254, 72.87010502316816], [19.26125176448992, 72.8718696955484], [19.26058253226148, 72.8738479967035], [19.260726724667084, 72.87505908236243], [19.26044035927222, 72.8761071768853], [19.258786183606137, 72.87765411113342], [19.256806787746257, 72.87865425135966], [19.254227818461413, 72.88179536785633], [19.253278693888095, 72.88484712863416], [19.24986314808272, 72.88867488500519], [19.249444677948325, 72.89358256592938], [19.238976051150864, 72.87766306618451], [19.23796251986188, 72.8702780446342], [19.238462619654186, 72.86705558785992], [19.238495977765986, 72.86435267345006], [19.23724392560678, 72.86415990475867], [19.237405853227003, 72.86293872837169], [19.238891990901564, 72.86101337547187], [19.23937743004306, 72.85941614688339], [19.23876358579429, 72.8589375830676], [19.237276880543654, 72.85866026049199], [19.23710130712741, 72.85798763509159], [19.23772798275986, 72.855500826029], [19.238383632616113, 72.84894875903508], [19.243387270762767, 72.84191524518026], [19.24952036475506, 72.83496392932513], [19.25203856970317, 72.83859942914093], [19.255060424193616, 72.8361716899061], [19.25862653175004, 72.83578023417205], [19.26339605590536, 72.83695599057081], [19.265973349604952, 72.83873017171908], [19.266739310344846, 72.83980761501677], [19.26742480318658, 72.84167095904616], [19.266934613378623, 72.84556193319575], [19.26734192157966, 72.8470761884954], [19.26989682747936, 72.85080903411684], [19.270175719714498, 72.85388310360263]]]}}, {"type": "Feature", "properties": {"id": "Z23", "ward": "S", "name": "S", "shops": 63, "waterlogging_prone": false}, "geometry": {"type": "Polygon", "coordinates": [[[19.167189840693727, 72.93134020996918], [19.163907573356823, 72.93706188331676], [19.16362155591572, 72.93927899603331], [19.160636043722736, 72.94641725517606], [19.159732198617554, 72.94697640504454], [19.157723430095057, 72.94664981511116], [19.156948539887953, 72.94731321902897], [19.154680150977068, 72.95692737956206], [19.15129842515358, 72.95468132952264], [19.15023716927357, 72.95624129227775], [19.150164111528696, 72.95827815352776], [19.148659910330082, 72.96144736739436], [19.147196360484692, 72.961871648404], [19.146571648730283, 72.96162112613183], [19.144568029941745, 72.9582248517597], [19.143055930464207, 72.95701239611105], [19.141757169825027, 72.95666183368702], [19.139354043523372, 72.95689197445002], [19.135796291586587, 72.959688222808], [19.134527665055355, 72.96131112674937], [19.132309063834917, 72.95903583443601], [19.128601484753798, 72.9612084769946], [19.12597005650122, 72.96073959270785], [19.116914041653924, 72.95457965396783], [19.113950656016765, 72.9537376031221], [19.110831556067776, 72.95182355234908], [19.11134843409057, 72.94906281494764], [19.11459148964232, 72.94536538602024], [19.11481667698225, 72.94407419777701], [19.113082590120552, 72.93633873456878], [19.11086651286063, 72.93461734990234], [19.11077570988403, 72.93407004602419], [19.10880770255176, 72.9331721156448], [19.110629757278904, 72.9282335824955], [19.110806561036405, 72.92688902271131], [19.111067140175162, 72.9267664608025], [19.110752165409195, 72.9254978249136], [19.10777208797109, 72.92378003923086], [19.10242436166147, 72.91994670014599], [19.10486123410737, 72.91655734780775], [19.105028684500894, 72.91591202074508], [19.10631376869653, 72.91610136118935], [19.107400321256566, 72.91550361071236], [19.108971310193557, 72.9163018508947], [19.108926786233503, 72.91659161224545], [19.110577947409244, 72.91762073994913], [19.11081196995573, 72.91845931931124], [19.117047269400608, 72.91830352391345], [19.11550048249771, 72.91635477338134], [19.1151554403098, 72.91521243635907], [19.111812130765298, 72.91408934881255], [19.110652593020532, 72.91330247478082], [19.10863123134903, 72.90978074423722], [19.10813679935135, 72.90800999583514], [19.110958608651973, 72.90671379752827], [19.111985039715687, 72.90454830196636], [19.115271696308508, 72.90448683708387], [19.116910173447078, 72.9033175547643], [19.11750212875574, 72.90326588324281], [19.120101472182508, 72.89833954473194], [19.12096082109777, 72.89608736106143], [19.124548802649723, 72.89573103499757], [19.125392862204723, 72.89207590002248], [19.126584496056136, 72.88992629750096], [19.129178410411786, 72.8864084204052], [19.12868014520159, 72.88489398568538], [19.129537893582416, 72.88477156543061], [19.129428521198246, 72.88639500701555], [19.130075556647924, 72.88688582744135], [19.131205037595084, 72.88871441238277], [19.13221087286179, 72.88858517866407], [19.136147014175855, 72.890925199586], [19.13640646296373, 72.89196781542388], [19.137989315371474, 72.89377976161292], [19.13948718121297, 72.89448119184134], [19.14210690618891, 72.89332699676123], [19.142090344898705, 72.8944231482581], [19.142610500456886, 72.89448564477472], [19.142633653373352, 72.89540057784818], [19.141887828786754, 72.8963677367708], [19.140946798115777, 72.8989260465704], [19.139349831821942, 72.89978468515314], [19.13981088749323, 72.90019943616035], [19.13970723477472, 72.90062702682663], [19.14064288575422, 72.90117818032066], [19.14052751382598, 72.90195754195602], [19.141264066096564, 72.901982801329], [19.1409698893115, 72.90481415864836], [19.14034560782038, 72.90478093255491], [19.139676000140835, 72.90616201633796], [19.140304735235155, 72.90662827806518], [19.14026075492748, 72.90696028425835], [19.139325232796107, 72.90736227227349], [19.14002653581055, 72.91003017807942], [19.14059388407835, 72.91073157914988], [19.140244365700763, 72.9118344506659], [19.14044852315473, 72.9127222973519], [19.141168584041374, 72.91287560543556], [19.141271359932542, 72.91353518576642], [19.141794670261337, 72.91392081994212], [19.141309182843216, 72.91625806222322], [19.141404892527206, 72.91812938347668], [19.14086990269689, 72.91844632959582], [19.144063146957034, 72.9206668931377], [19.144613032347742, 72.92164264901722], [19.146297762536463, 72.92296509450527], [19.149531507028843, 72.92404629931825], [19.150852181468448, 72.9240547750553], [19.152038214707584, 72.92478445865864], [19.152015738293876, 72.92510741933839], [19.153109917330926, 72.92601849979805], [19.153064967570945, 72.92672342872376], [19.15391918118487, 72.92744129782035], [19.155455731828717, 72.9272045889111], [19.15623850972376, 72.92803409212986], [19.157865383927984, 72.92868656174693], [19.159264255139725, 72.92849270607168], [19.162834045966147, 72.92898114364613], [19.163224037474002, 72.92865692756129], [19.164211985773516, 72.92887809281069], [19.165325759200112, 72.92864976031966], [19.16526984539369, 72.9290182113881], [19.166515018789415, 72.92869708578431], [19.167189840693727, 72.93134020996918]]]}}, {"type": "Feature", "properties": {"id": "Z24", "ward": "T", "name": "T", "shops": 32, "waterlogging_prone": false}, "geometry": {"type": "Polygon", "coordinates": [[[19.191829023616055, 72.93702278146954], [19.187386105380842, 72.94193996384291], [19.187853197673277, 72.94287665828979], [19.18759681402205, 72.94343917241798], [19.188107191118835, 72.94502140808444], [19.188020371163887, 72.94672743625597], [19.187763064010213, 72.94681499238813], [19.18781512979729, 72.94754121790308], [19.187075302776133, 72.94960591016653], [19.18665613342982, 72.9500813519911], [19.185946796207862, 72.95007395777682], [19.185059463895943, 72.95127046466871], [19.184741193285987, 72.95330298385913], [19.18477819896344, 72.95441351252157], [19.185170112961355, 72.95445952860585], [19.18517761346914, 72.95498126013807], [19.18421672988146, 72.95585570994741], [19.183330799400355, 72.95578659111392], [19.182706761121747, 72.95666373265988], [19.182552397898203, 72.95802076316352], [19.18215283560874, 72.958347392187], [19.18168655654084, 72.9586573560337], [19.18080917749129, 72.95862202504466], [19.18081462106234, 72.95901872993521], [19.180207423742218, 72.95956044801638], [19.17942037202211, 72.95939399521482], [19.179314408796703, 72.95974658163026], [19.178932955076213, 72.95979786643206], [19.17911482438965, 72.96049845204286], [19.178870735842136, 72.96106223763398], [19.179442464785865, 72.96166852970111], [19.17842524263061, 72.96254952249329], [19.177615051670042, 72.9625576269233], [19.17667032027664, 72.96378391125164], [19.177143835225422, 72.96574477912868], [19.1779505919986, 72.96696913919861], [19.177913646266493, 72.96802556694979], [19.17601170561346, 72.96850812590311], [19.175555356897128, 72.97022132678373], [19.176089809667285, 72.9709160152798], [19.178702842220517, 72.97186129818733], [19.178533602548548, 72.9726761700234], [19.17835176139399, 72.9729537687652], [19.177306916068126, 72.9727025969798], [19.17719646497225, 72.973568383959], [19.176810366062583, 72.97355389395547], [19.17355360999032, 72.97593789848452], [19.168875082043428, 72.97973149704592], [19.159855397390555, 72.97682712509818], [19.157181634512252, 72.97617274517194], [19.155783409991837, 72.97625672846449], [19.152655446810975, 72.97565950056494], [19.14929783663736, 72.97303513750737], [19.140654031824386, 72.96807403467741], [19.139077651818102, 72.96567893810415], [19.134527665055355, 72.96131112674937], [19.13613473634723, 72.95938668604893], [19.13972092308725, 72.95678372068775], [19.141757169825027, 72.95666183368702], [19.14332050212727, 72.95716129292784], [19.144701314280223, 72.95838919898804], [19.14628955353678, 72.96134606993958], [19.147196360484692, 72.961871648404], [19.14887610446566, 72.96116882506415], [19.150164111528696, 72.95827815352776], [19.15023716927357, 72.95624129227775], [19.15129842515358, 72.95468132952264], [19.154680150977068, 72.95692737956206], [19.156987192377276, 72.94723280441524], [19.157723430095057, 72.94664981511116], [19.159732198617554, 72.94697640504454], [19.160636043722736, 72.94641725517606], [19.16362155591572, 72.93927899603331], [19.16394119642337, 72.93698291221486], [19.167100412532182, 72.93163411391171], [19.167221109246686, 72.93098143904011], [19.166565235171113, 72.92957339387596], [19.166515018789415, 72.92869708578431], [19.16526984539369, 72.9290182113881], [19.165325759200112, 72.92864976031966], [19.164211985773516, 72.92887809281069], [19.163224037474002, 72.92865692756129], [19.162834045966147, 72.92898114364613], [19.159264255139725, 72.92849270607168], [19.157865383927984, 72.92868656174693], [19.15623850972376, 72.92803409212986], [19.155455731828717, 72.9272045889111], [19.15391918118487, 72.92744129782035], [19.153064967570945, 72.92672342872376], [19.153109917330926, 72.92601849979805], [19.152015738293876, 72.92510741933839], [19.152038214707584, 72.92478445865864], [19.150852181468448, 72.9240547750553], [19.149531507028843, 72.92404629931825], [19.146297762536463, 72.92296509450527], [19.144613032347742, 72.92164264901722], [19.144063146957034, 72.9206668931377], [19.14086990269689, 72.91844632959582], [19.141404892527206, 72.91812938347668], [19.141309182843216, 72.91625806222322], [19.141794670261337, 72.91392081994212], [19.141271359932542, 72.91353518576642], [19.141168584041374, 72.91287560543556], [19.14044852315473, 72.9127222973519], [19.140244365700763, 72.9118344506659], [19.14059388407835, 72.91073157914988], [19.14002653581055, 72.91003017807942], [19.139325232796107, 72.90736227227349], [19.14026075492748, 72.90696028425835], [19.140304735235155, 72.90662827806518], [19.139676000140835, 72.90616201633796], [19.14034560782038, 72.90478093255491], [19.1409698893115, 72.90481415864836], [19.141264066096564, 72.901982801329], [19.14052751382598, 72.90195754195602], [19.14064288575422, 72.90117818032066], [19.13970723477472, 72.90062702682663], [19.13981088749323, 72.90019943616035], [19.139349831821942, 72.89978468515314], [19.140876885950952, 72.89903408631226], [19.141887828786754, 72.8963677367708], [19.142633653373352, 72.89540057784818], [19.142610500456886, 72.89448564477472], [19.142090344898705, 72.8944231482581], [19.14200443634934, 72.89413990697794], [19.1452054436822, 72.89533769558255], [19.14729508664223, 72.89498977651577], [19.150677152793545, 72.89298481377539], [19.153707986433876, 72.89350046804893], [19.156848107390733, 72.8894130077402], [19.157632489259306, 72.89045652726584], [19.15988956658424, 72.89046886071218], [19.160266851012107, 72.89155143403784], [19.163176761999278, 72.89247551963268], [19.163970524483187, 72.89232041440644], [19.173598724180263, 72.89704853111058], [19.176088511261295, 72.89932886046095], [19.179927456898245, 72.90026532634027], [19.18326322733052, 72.89999187391311], [19.1915367065953, 72.90032263958875], [19.19636999982831, 72.9014686250776], [19.197251222995103, 72.90235762248182], [19.201388052582278, 72.90243946872954], [19.202468508537226, 72.9089852551925], [19.20759546288379, 72.9101687570266], [19.208264037837434, 72.91346449585221], [19.210172686820577, 72.91486052566594], [19.216166393398897, 72.91721180540318], [19.21693349773297, 72.92008898749478], [19.21639445084678, 72.92229102297853], [19.21352435435907, 72.9261590123594], [19.211693537849257, 72.92756504376695], [19.211228233907374, 72.93098476637039], [19.207109229301537, 72.93296306033895], [19.20549931108181, 72.9355095029001], [19.193997446056173, 72.93532960562531], [19.191829023616055, 72.93702278146954]]]}}]}